{
  "type": "FeatureCollection",
  "features": [
    {
      "type": "Feature",
      "properties": {
        "norad_id": 44334,
        "name": "EUTELSAT 7C",
        "group": "eutelsat",
        "lat": -0.007886068099699352,
        "lon": 159.84097475099313,
        "alt_km": 35788.19643334537,
        "timestamp": "2025-12-25T03:55:55.978974+00:00",
        "meta_object_name": "EUTELSAT 7C",
        "meta_object_id": "2019-034B",
        "meta_epoch": "2025-12-24T14:50:38.546016",
        "meta_mean_motion": 1.00270796,
        "meta_eccentricity": 0.0003159,
        "meta_inclination": 0.0726,
        "meta_ra_of_asc_node": 177.7928,
        "meta_arg_of_pericenter": 79.9691,
        "meta_mean_anomaly": 65.2631,
        "meta_ephemeris_type": 0,
        "meta_classification_type": "U",
        "meta_norad_cat_id": 44334,
        "meta_element_set_no": 999,
        "meta_rev_at_epoch": 508,
        "meta_bstar": 0,
        "meta_mean_motion_dot": 6.9e-07,
        "meta_mean_motion_ddot": 0,
        "tle_line1": "1 44334U 19034B   25358.61850169  .00000069  00000+0  00000+0 0  9997",
        "tle_line2": "2 44334   0.0726 177.7928 0003159  79.9691  65.2631  1.00270796  5083"
      },
      "geometry": {
        "type": "Point",
        "coordinates": [
          159.84097475099313,
          -0.007886068099699352
        ]
      }
    },
    {
      "type": "Feature",
      "properties": {
        "norad_id": 44624,
        "name": "EUTELSAT 5 WEST B",
        "group": "eutelsat",
        "lat": 0.02936678760083356,
        "lon": 147.87627792050137,
        "alt_km": 35793.73000590732,
        "timestamp": "2025-12-25T03:55:55.978986+00:00",
        "meta_object_name": "EUTELSAT 5 WEST B",
        "meta_object_id": "2019-067A",
        "meta_epoch": "2025-12-24T16:29:59.033184",
        "meta_mean_motion": 1.00271313,
        "meta_eccentricity": 0.0003125,
        "meta_inclination": 0.0635,
        "meta_ra_of_asc_node": 343.2156,
        "meta_arg_of_pericenter": 289.3111,
        "meta_mean_anomaly": 63.4298,
        "meta_ephemeris_type": 0,
        "meta_classification_type": "U",
        "meta_norad_cat_id": 44624,
        "meta_element_set_no": 999,
        "meta_rev_at_epoch": 2268,
        "meta_bstar": 0,
        "meta_mean_motion_dot": -2.1e-07,
        "meta_mean_motion_ddot": 0,
        "tle_line1": "1 44624U 19067A   25358.68748881 -.00000021  00000+0  00000+0 0  9998",
        "tle_line2": "2 44624   0.0635 343.2156 0003125 289.3111  63.4298  1.00271313 22684"
      },
      "geometry": {
        "type": "Point",
        "coordinates": [
          147.87627792050137,
          0.02936678760083356
        ]
      }
    },
    {
      "type": "Feature",
      "properties": {
        "norad_id": 45027,
        "name": "EUTELSAT KONNECT",
        "group": "eutelsat",
        "lat": 0.07366498518273655,
        "lon": 160.0882067419936,
        "alt_km": 35789.69648075866,
        "timestamp": "2025-12-25T03:55:55.978997+00:00",
        "meta_object_name": "EUTELSAT KONNECT",
        "meta_object_id": "2020-005B",
        "meta_epoch": "2025-12-24T14:50:46.034304",
        "meta_mean_motion": 1.00269906,
        "meta_eccentricity": 0.0001462,
        "meta_inclination": 0.0704,
        "meta_ra_of_asc_node": 94.2723,
        "meta_arg_of_pericenter": 186.2921,
        "meta_mean_anomaly": 42.7194,
        "meta_ephemeris_type": 0,
        "meta_classification_type": "U",
        "meta_norad_cat_id": 45027,
        "meta_element_set_no": 999,
        "meta_rev_at_epoch": 2258,
        "meta_bstar": 0,
        "meta_mean_motion_dot": 7e-07,
        "meta_mean_motion_ddot": 0,
        "tle_line1": "1 45027U 20005B   25358.61858836  .00000070  00000+0  00000+0 0  9998",
        "tle_line2": "2 45027   0.0704  94.2723 0001462 186.2921  42.7194  1.00269906 22587"
      },
      "geometry": {
        "type": "Point",
        "coordinates": [
          160.0882067419936,
          0.07366498518273655
        ]
      }
    },
    {
      "type": "Feature",
      "properties": {
        "norad_id": 49056,
        "name": "EUTELSAT QUANTUM",
        "group": "eutelsat",
        "lat": -0.003830391705833046,
        "lon": -159.43355700011955,
        "alt_km": 35784.07962872384,
        "timestamp": "2025-12-25T03:55:55.979009+00:00",
        "meta_object_name": "EUTELSAT QUANTUM",
        "meta_object_id": "2021-069B",
        "meta_epoch": "2025-12-24T20:37:38.640864",
        "meta_mean_motion": 1.00270973,
        "meta_eccentricity": 0.0003464,
        "meta_inclination": 0.0115,
        "meta_ra_of_asc_node": 15.195,
        "meta_arg_of_pericenter": 266.8229,
        "meta_mean_anomaly": 168.7231,
        "meta_ephemeris_type": 0,
        "meta_classification_type": "U",
        "meta_norad_cat_id": 49056,
        "meta_element_set_no": 999,
        "meta_rev_at_epoch": 1618,
        "meta_bstar": 0,
        "meta_mean_motion_dot": 1.47e-06,
        "meta_mean_motion_ddot": 0,
        "tle_line1": "1 49056U 21069B   25358.85947501  .00000147  00000+0  00000+0 0  9994",
        "tle_line2": "2 49056   0.0115  15.1950 0003464 266.8229 168.7231  1.00270973 16189"
      },
      "geometry": {
        "type": "Point",
        "coordinates": [
          -159.43355700011955,
          -0.003830391705833046
        ]
      }
    },
    {
      "type": "Feature",
      "properties": {
        "norad_id": 53765,
        "name": "EUTELSAT KONNECT VHTS",
        "group": "eutelsat",
        "lat": 0.06032903440844482,
        "lon": 155.59123221880856,
        "alt_km": 35787.81928022835,
        "timestamp": "2025-12-25T03:55:55.979021+00:00",
        "meta_object_name": "EUTELSAT KONNECT VHTS",
        "meta_object_id": "2022-110A",
        "meta_epoch": "2025-12-24T16:32:13.818048",
        "meta_mean_motion": 1.00267467,
        "meta_eccentricity": 0.0002482,
        "meta_inclination": 0.0598,
        "meta_ra_of_asc_node": 98.3611,
        "meta_arg_of_pericenter": 150.0857,
        "meta_mean_anomaly": 95.793,
        "meta_ephemeris_type": 0,
        "meta_classification_type": "U",
        "meta_norad_cat_id": 53765,
        "meta_element_set_no": 999,
        "meta_rev_at_epoch": 507,
        "meta_bstar": 0,
        "meta_mean_motion_dot": 3.8e-07,
        "meta_mean_motion_ddot": 0,
        "tle_line1": "1 53765U 22110A   25358.68904882  .00000038  00000+0  00000+0 0  9999",
        "tle_line2": "2 53765   0.0598  98.3611 0002482 150.0857  95.7930  1.00267467  5078"
      },
      "geometry": {
        "type": "Point",
        "coordinates": [
          155.59123221880856,
          0.06032903440844482
        ]
      }
    },
    {
      "type": "Feature",
      "properties": {
        "norad_id": 54048,
        "name": "EUTELSAT HOTBIRD 13F",
        "group": "eutelsat",
        "lat": -0.03435314840966394,
        "lon": 165.90391649114522,
        "alt_km": 35795.23245780107,
        "timestamp": "2025-12-25T03:55:55.979034+00:00",
        "meta_object_name": "EUTELSAT HOTBIRD 13F",
        "meta_object_id": "2022-134A",
        "meta_epoch": "2025-12-24T16:35:06.041760",
        "meta_mean_motion": 1.00270762,
        "meta_eccentricity": 0.0002201,
        "meta_inclination": 0.055,
        "meta_ra_of_asc_node": 289.1731,
        "meta_arg_of_pericenter": 72.2821,
        "meta_mean_anomaly": 353.7761,
        "meta_ephemeris_type": 0,
        "meta_classification_type": "U",
        "meta_norad_cat_id": 54048,
        "meta_element_set_no": 999,
        "meta_rev_at_epoch": 1162,
        "meta_bstar": 0,
        "meta_mean_motion_dot": 1.08e-06,
        "meta_mean_motion_ddot": 0,
        "tle_line1": "1 54048U 22134A   25358.69104215  .00000108  00000+0  00000+0 0  9991",
        "tle_line2": "2 54048   0.0550 289.1731 0002201  72.2821 353.7761  1.00270762 11628"
      },
      "geometry": {
        "type": "Point",
        "coordinates": [
          165.90391649114522,
          -0.03435314840966394
        ]
      }
    },
    {
      "type": "Feature",
      "properties": {
        "norad_id": 54225,
        "name": "EUTELSAT HOTBIRD 13G",
        "group": "eutelsat",
        "lat": -0.033850623113471236,
        "lon": 165.88471925078383,
        "alt_km": 35779.702689346545,
        "timestamp": "2025-12-25T03:55:55.979046+00:00",
        "meta_object_name": "EUTELSAT HOTBIRD 13G",
        "meta_object_id": "2022-146A",
        "meta_epoch": "2025-12-24T00:28:38.654112",
        "meta_mean_motion": 1.00268836,
        "meta_eccentricity": 0.00017131,
        "meta_inclination": 0.0535,
        "meta_ra_of_asc_node": 227.8066,
        "meta_arg_of_pericenter": 307.349,
        "meta_mean_anomaly": 297.8001,
        "meta_ephemeris_type": 0,
        "meta_classification_type": "U",
        "meta_norad_cat_id": 54225,
        "meta_element_set_no": 999,
        "meta_rev_at_epoch": 571,
        "meta_bstar": 0,
        "meta_mean_motion_dot": 1.08e-06,
        "meta_mean_motion_ddot": 0,
        "tle_line1": "1 54225U 22146A   25358.01989183  .00000108  00000+0  00000+0 0  9992",
        "tle_line2": "2 54225   0.0535 227.8066 0001713 307.3490 297.8001  1.00268836  5716"
      },
      "geometry": {
        "type": "Point",
        "coordinates": [
          165.88471925078383,
          -0.033850623113471236
        ]
      }
    }
  ]
}